OBJECT_NAME,OBJECT_ID,EPOCH,MEAN_MOTION,ECCENTRICITY,INCLINATION,RA_OF_ASC_NODE,ARG_OF_PERICENTER,MEAN_ANOMALY,EPHEMERIS_TYPE,CLASSIFICATION_TYPE,NORAD_CAT_ID,ELEMENT_SET_NO,REV_AT_EPOCH,BSTAR,MEAN_MOTION_DOT,MEAN_MOTION_DDOT
BEIDOU-2 IGSO-5 (C10),2011-073A,2026-06-18T16:01:15.839616,1.00272695,.01139717,47.6748,271.5267,221.7702,105.6518,0,U,37948,999,5314,0,-.192E-5,0
LUCH 5A (SDCM/PRN 140),2011-074B,2026-06-19T13:55:16.739904,1.00270641,.00023947,8.7611,73.7727,28.2637,181.5175,0,U,37951,999,5307,0,-.59E-6,0
BEIDOU-2 G5 (C05),2012-008A,2026-06-19T15:00:23.753088,1.00272611,.00090578,3.5808,69.6846,272.9399,208.9791,0,U,38091,999,5239,0,.5E-6,0
BEIDOU-2 M3 (C11),2012-018A,2026-06-19T08:04:35.899104,1.86229615,.00201482,55.7558,304.8029,273.7070,86.0544,0,U,38250,999,9598,0,-.83E-6,0
BEIDOU-2 M4 (C12),2012-018B,2026-06-19T06:27:06.904224,1.86229271,.0011331,55.6560,304.0191,275.2642,84.5989,0,U,38251,999,9598,0,-.82E-6,0
SES-5 (EGNOS/PRN 136),2012-036A,2026-06-19T09:28:43.038912,1.00271228,.00017955,0.0451,317.4240,130.6144,326.7286,0,U,38652,999,4447,0,.27E-6,0
BEIDOU-2 M6 (C14),2012-050B,2026-06-18T23:29:07.603008,1.86230903,.00136377,56.5458,62.8350,357.7339,2.3019,0,U,38775,999,9334,0,-.6E-6,0
GSAT-10 (GAGAN/PRN 128),2012-051B,2026-06-19T01:17:38.682816,1.00272138,.00077687,0.0753,261.8445,186.2684,281.5912,0,U,38779,999,5011,0,-.171E-5,0
GPS BIIF-3  (PRN 24),2012-053A,2026-06-19T07:27:03.604896,2.00567483,.0180422,53.5865,143.5123,65.7851,296.0569,0,U,38833,999,9948,0,.52E-6,0
GSAT0103 (GALILEO-FM3),2012-055A,2026-06-17T11:24:53.398656,1.70473345,.00047719,55.8068,101.5377,306.3432,53.5821,0,U,38857,999,8501,0,-.11E-6,0
BEIDOU-2 G6 (C02),2012-059A,2026-06-19T14:59:11.692032,1.00271608,.00096307,4.4288,73.4968,324.4164,178.7711,0,U,38953,999,4993,0,-.183E-5,0
LUCH 5B (SDCM/PRN 125),2012-061A,2026-06-18T21:24:08.583264,1.00272094,.0002465,10.4892,49.8655,150.1855,11.8366,0,U,38977,999,4962,0,-.148E-5,0
COSMOS 2485 (747),2013-019A,2026-06-16T21:50:24.393120,2.13103258,.00231353,65.4195,73.6140,234.1379,125.6814,0,U,39155,999,10227,0,-.2E-6,0
GPS BIIF-4  (PRN 27),2013-023A,2026-06-19T04:15:35.048736,2.00563419,.01415076,54.5024,268.8925,51.0502,310.2406,0,U,39166,999,9592,0,-.47E-6,0
IRNSS-1A,2013-034A,2026-06-18T21:29:26.733984,1.00275723,.00175894,35.7241,63.8469,183.2529,37.3106,0,U,39199,999,4738,0,.51E-6,0
GPS BIIF-5  (PRN 30),2014-008A,2026-06-19T04:17:58.217856,2.00559887,.00842159,53.6550,149.2384,231.3045,127.9139,0,U,39533,999,8972,0,.54E-6,0
ASTRA 5B (EGNOS/PRN 123),2014-011B,2026-06-19T12:59:14.103744,1.00273341,.0001986,0.0652,311.2030,146.4796,28.4091,0,U,39617,999,4469,0,.131E-5,0
COSMOS 2492 (754),2014-012A,2026-06-18T06:38:22.527168,2.13103143,.0010348,65.2971,313.8989,324.5914,35.3281,0,U,39620,999,9526,0,-.55E-6,0
IRNSS-1B,2014-017A,2026-06-18T18:19:03.572256,1.00276864,.0023149,28.9195,240.3764,189.5120,167.0529,0,U,39635,999,4480,0,.112E-5,0
LUCH 5V (SDCM/PRN 141),2014-023A,2026-06-19T15:02:18.893184,1.00273535,.00018678,5.1395,69.7210,49.4044,109.0285,0,U,39727,999,4438,0,-.276E-5,0
GPS BIIF-6  (PRN 06),2014-026A,2026-06-18T22:56:45.862368,2.00560795,.00381725,56.4974,331.4485,326.5493,33.2021,0,U,39741,999,8857,0,-.88E-6,0
COSMOS 2500 (755),2014-032A,2026-06-18T10:42:48.439008,2.13105740,.00074007,65.2319,313.6405,184.7719,175.2102,0,U,40001,999,9348,0,-.55E-6,0
GPS BIIF-7  (PRN 09),2014-045A,2026-06-19T01:08:56.434560,2.00558491,.00333795,55.3543,88.3908,118.2440,242.0987,0,U,40105,999,8611,0,-.2E-6,0
GSAT0201 (GALILEO 5),2014-050A,2026-06-19T00:48:47.741760,1.85519994,.16748162,48.8734,273.3607,179.4648,180.7911,0,U,40128,999,7835,0,-.68E-6,0
GSAT0202 (GALILEO 6),2014-050B,2026-06-18T05:04:29.700768,1.85520552,.1675952,48.8910,272.4799,180.1594,179.8332,0,U,40129,999,8050,0,-.58E-6,0
IRNSS-1C,2014-061A,2026-06-18T21:37:54.135264,1.00269060,.0022696,6.5218,88.8990,2.6506,223.0203,0,U,40269,999,4270,0,-.169E-5,0
GPS BIIF-8  (PRN 03),2014-068A,2026-06-17T22:05:35.381760,2.00576133,.00670716,56.9881,30.9264,70.6155,290.1646,0,U,40294,999,8522,0,-.79E-6,0
COSMOS 2501 (702K),2014-075A,2026-06-19T04:15:56.231424,2.13101224,.00226315,63.6164,190.3031,212.5010,147.4015,0,U,40315,999,8989,0,.57E-6,0
GPS BIIF-9  (PRN 26),2015-013A,2026-06-19T13:19:51.753504,2.00551230,.01095833,53.1677,204.0796,40.1503,320.7125,0,U,40534,999,8187,0,.33E-6,0
GSAT0203 (GALILEO 7),2015-017A,2026-06-17T19:11:07.295136,1.70476090,.0002098,56.7854,341.5787,276.4201,83.5494,0,U,40544,999,6921,0,-.91E-6,0
GSAT0204 (GALILEO 8),2015-017B,2026-06-17T11:14:46.988160,1.70475617,.00019092,56.7938,341.6062,248.2807,111.6927,0,U,40545,999,3225,0,-.91E-6,0
