BEIDOU-2 IGSO-5         
1 37948U 11073A   26169.66754444 -.00000192  00000+0  00000+0 0  9998
2 37948  47.6748 271.5267 0113971 221.7702 105.6518  1.00272695 53143
LUCH-5A                 
1 37951U 11074B   26170.58005486 -.00000059  00000+0  00000+0 0  9993
2 37951   8.7611  73.7727 0002394  28.2637 181.5175  1.00270641 53073
BEIDOU-2 G5             
1 38091U 12008A   26170.62527492  .00000050  00000+0  00000+0 0  9998
2 38091   3.5808  69.6846 0009057 272.9399 208.9791  1.00272611 52393
BEIDOU-2 M3             
1 38250U 12018A   26170.33652661 -.00000083  00000+0  00000+0 0  9998
2 38250  55.7558 304.8029 0020148 273.7070  86.0544  1.86229615 95980
BEIDOU-2 M4             
1 38251U 12018B   26170.26882991 -.00000082  00000+0  00000+0 0  9991
2 38251  55.6560 304.0191 0011331 275.2642  84.5989  1.86229271 95985
SES-5                   
1 38652U 12036A   26170.39494258  .00000027  00000+0  00000+0 0  9993
2 38652   0.0451 317.4240 0001795 130.6144 326.7286  1.00271228 44474
BEIDOU-2 M6             
1 38775U 12050B   26169.97856022 -.00000060  00000+0  00000+0 0  9996
2 38775  56.5458  62.8350 0013637 357.7339   2.3019  1.86230903 93342
GSAT-10                 
1 38779U 12051B   26170.05391994 -.00000171  00000+0  00000+0 0  9997
2 38779   0.0753 261.8445 0007768 186.2684 281.5912  1.00272138 50113
NAVSTAR 67 (USA 239)    
1 38833U 12053A   26170.31045839  .00000052  00000+0  00000+0 0  9990
2 38833  53.5865 143.5123 0180422  65.7851 296.0569  2.00567483 99489
GSAT0103 (GALILEO-FM3)  
1 38857U 12055A   26168.47561804 -.00000011  00000+0  00000+0 0  9993
2 38857  55.8068 101.5377 0004771 306.3432  53.5821  1.70473345 85011
BEIDOU-2 G6             
1 38953U 12059A   26170.62444088 -.00000183  00000+0  00000+0 0  9998
2 38953   4.4288  73.4968 0009630 324.4164 178.7711  1.00271608 49937
LUCH-5B                 
1 38977U 12061A   26169.89176601 -.00000148  00000+0  00000+0 0  9998
2 38977  10.4892  49.8655 0002465 150.1855  11.8366  1.00272094 49620
COSMOS 2485 [GLONASS-M] 
1 39155U 13019A   26167.91000455 -.00000020  00000+0  00000+0 0  9994
2 39155  65.4195  73.6140 0023135 234.1379 125.6814  2.13103258102273
NAVSTAR 68 (USA 242)    
1 39166U 13023A   26170.17748899 -.00000047  00000+0  00000+0 0  9993
2 39166  54.5024 268.8925 0141507  51.0502 310.2406  2.00563419 95929
IRNSS-1A                
1 39199U 13034A   26169.89544831  .00000051  00000+0  00000+0 0  9992
2 39199  35.7241  63.8469 0017589 183.2529  37.3106  1.00275723 47380
NAVSTAR 69 (USA 248)    
1 39533U 14008A   26170.17914604  .00000054  00000+0  00000+0 0  9991
2 39533  53.6550 149.2384 0084215 231.3045 127.9139  2.00559887 89720
ASTRA 5B                
1 39617U 14011B   26170.54113546  .00000131  00000+0  00000+0 0  9991
2 39617   0.0652 311.2030 0001986 146.4796  28.4091  1.00273341 44690
COSMOS 2492 [GLONASS-M] 
1 39620U 14012A   26169.27664962 -.00000055  00000+0  00000+0 0  9993
2 39620  65.2971 313.8989 0010348 324.5914  35.3281  2.13103143 95269
IRNSS-1B                
1 39635U 14017A   26169.76323579  .00000112  00000+0  00000+0 0  9997
2 39635  28.9195 240.3764 0023149 189.5120 167.0529  1.00276864 44803
LUCH-5V                 
1 39727U 14023A   26170.62660756 -.00000276  00000+0  00000+0 0  9996
2 39727   5.1395  69.7210 0001867  49.4044 109.0285  1.00273535 44385
NAVSTAR 70 (USA 251)    
1 39741U 14026A   26169.95608637 -.00000088  00000+0  00000+0 0  9990
2 39741  56.4974 331.4485 0038172 326.5493  33.2021  2.00560795 88575
COSMOS 2500 [GLONASS-M] 
1 40001U 14032A   26169.44639397 -.00000055  00000+0  00000+0 0  9993
2 40001  65.2319 313.6405 0007400 184.7719 175.2102  2.13105740 93488
NAVSTAR 71 (USA 256)    
1 40105U 14045A   26170.04787540 -.00000020  00000+0  00000+0 0  9996
2 40105  55.3543  88.3908 0033379 118.2440 242.0987  2.00558491 86110
GSAT0201 (GALILEO 5)    
1 40128U 14050A   26170.03388590 -.00000068  00000+0  00000+0 0  9990
2 40128  48.8734 273.3607 1674816 179.4648 180.7911  1.85519994 78352
GSAT0202 (GALILEO 6)    
1 40129U 14050B   26169.21145487 -.00000058  00000+0  00000+0 0  9994
2 40129  48.8910 272.4799 1675952 180.1594 179.8332  1.85520552 80500
IRNSS-1C                
1 40269U 14061A   26169.90132101 -.00000169  00000+0  00000+0 0  9999
2 40269   6.5218  88.8990 0022696   2.6506 223.0203  1.00269060 42700
NAVSTAR 72 (USA 258)    
1 40294U 14068A   26168.92054840 -.00000079  00000+0  00000+0 0  9998
2 40294  56.9881  30.9264 0067071  70.6155 290.1646  2.00576133 85229
COSMOS 2501 [GLONASS-K] 
1 40315U 14075A   26170.17773416  .00000057  00000+0  00000+0 0  9992
2 40315  63.6164 190.3031 0022631 212.5010 147.4015  2.13101224 89895
NAVSTAR 73 (USA 260)    
1 40534U 15013A   26170.55546011  .00000033  00000+0  00000+0 0  9993
2 40534  53.1677 204.0796 0109583  40.1503 320.7125  2.00551230 81876
GSAT0203 (GALILEO 7)    
1 40544U 15017A   26168.79938999 -.00000091  00000+0  00000+0 0  9996
2 40544  56.7854 341.5787 0002098 276.4201  83.5494  1.70476090 69215
GSAT0204 (GALILEO 8)    
1 40545U 15017B   26168.46859940 -.00000091  00000+0  00000+0 0  9999
2 40545  56.7938 341.6062 0001909 248.2807 111.6927  1.70475617 32257
